NORAD_CAT_ID,OBJECT_NAME,OBJECT_TYPE,EPOCH,MEAN_MOTION,ECCENTRICITY,INCLINATION,RA_OF_ASC_NODE,ARG_OF_PERICENTER,MEAN_ANOMALY,BSTAR,MEAN_MOTION_DOT,MEAN_MOTION_DDOT,TLE_LINE0,TLE_LINE1,TLE_LINE2,SEMIMAJOR_AXIS,PERIOD,APOGEE,PERIGEE,DECAYED
54007.0,STARLINK-5132,PAYLOAD,2023-10-09 05:07:12,15.08871994,0.0001591,53.2156,215.3535,90.6198,269.4976,0.0010736,0.00016855,0.0,0 STARLINK-5132,1 54007U 22125AV  23282.21334131  .00016855  00000-0  10736-2 0  9997,2 54007  53.2156 215.3535 0001591  90.6198 269.4976 15.08871994 56245,6917.783,95.436,540.748,538.547,0.0
54007.0,STARLINK-5132,PAYLOAD,2023-10-09 19:25:41,15.08842554,0.0001425,53.2165,212.6776,116.8388,243.275,0.0010564,0.00016566,0.0,0 STARLINK-5132,1 54007U 22125AV  23282.80950875  .00016566  00000-0  10564-2 0  9999,2 54007  53.2165 212.6776 0001425 116.8388 243.2750 15.08842554 56385,6917.873,95.437,540.723,538.752,0.0
54007.0,STARLINK-5132,PAYLOAD,2023-10-10 04:58:00,15.088568,0.000171,53.2167,210.8943,101.1195,258.9989,0.001782,0.000282,0.0,0 STARLINK-5132,1 54007U 22125AV  23283.20694809  .00028200  00000-0  17820-2 0  9996,2 54007  53.2167 210.8943 0001710 101.1195 258.9989 15.08856800 56390,6917.829,95.436,540.877,538.511,0.0
54007.0,STARLINK-5132,PAYLOAD,2023-10-11 01:38:01,15.08842375,0.0001563,53.2163,207.0286,98.8823,261.2347,0.0016952,0.00026796,0.0,0 STARLINK-5132,1 54007U 22125AV  23284.06807870  .00026796  00000-0  16952-2 0  9998,2 54007  53.2163 207.0286 0001563  98.8823 261.2347 15.08842375 56577,6917.873,95.437,540.819,538.657,0.0
54007.0,STARLINK-5132,PAYLOAD,2023-10-11 04:48:48,15.08847778,0.000157,53.2166,206.4344,97.2173,262.8997,0.0016068,0.00025382,0.0,0 STARLINK-5132,1 54007U 22125AV  23284.20055819  .00025382  00000-0  16068-2 0  9990,2 54007  53.2166 206.4344 0001570  97.2173 262.8997 15.08847778 56544,6917.857,95.437,540.808,538.636,0.0
54007.0,STARLINK-5132,PAYLOAD,2023-10-12 03:04:12,15.0886206,0.000136,53.2171,202.2714,85.4707,274.644,0.0017985,0.00028468,0.0,0 STARLINK-5132,1 54007U 22125AV  23285.12792034  .00028468  00000-0  17985-2 0  9996,2 54007  53.2171 202.2714 0001360  85.4707 274.6440 15.08862060 56730,6917.813,95.436,540.619,538.737,0.0
54007.0,STARLINK-5132,PAYLOAD,2023-10-12 11:01:08,15.08854845,0.0001476,53.2175,200.7844,92.6849,267.4312,0.0014725,0.00023234,0.0,0 STARLINK-5132,1 54007U 22125AV  23285.45912060  .00023234  00000-0  14725-2 0  9990,2 54007  53.2175 200.7844 0001476  92.6849 267.4312 15.08854845 56736,6917.835,95.437,540.721,538.679,0.0
54007.0,STARLINK-5132,PAYLOAD,2023-10-12 22:08:49,15.08854609,0.0001325,53.2171,198.7034,100.776,259.3382,0.0010573,0.00016586,0.0,0 STARLINK-5132,1 54007U 22125AV  23285.92279810  .00016586  00000-0  10573-2 0  9990,2 54007  53.2171 198.7034 0001325 100.7760 259.3382 15.08854609 56808,6917.836,95.437,540.617,538.784,0.0
54007.0,STARLINK-5132,PAYLOAD,2023-10-13 01:19:35,15.08862352,0.0001437,53.217,198.1102,102.3742,257.7411,0.0011718,0.00018422,0.0,0 STARLINK-5132,1 54007U 22125AV  23286.05527545  .00018422  00000-0  11718-2 0  9999,2 54007  53.2170 198.1102 0001437 102.3742 257.7411 15.08862352 56875,6917.812,95.436,540.671,538.683,0.0
54007.0,STARLINK-5132,PAYLOAD,2023-10-13 10:51:54,15.08855417,0.0001227,53.2176,196.3236,83.7624,276.3507,0.00037517,5.69e-05,0.0,0 STARLINK-5132,1 54007U 22125AV  23286.45271168  .00005690  00000-0  37517-3 0  9999,2 54007  53.2176 196.3236 0001227  83.7624 276.3507 15.08855417 56931,6917.833,95.437,540.547,538.849,0.0
54007.0,STARLINK-5132,PAYLOAD,2023-10-13 21:59:36,15.08849929,0.0001155,53.2169,194.243,91.3826,268.7298,0.00040875,6.225e-05,0.0,0 STARLINK-5132,1 54007U 22125AV  23286.91639274  .00006225  00000-0  40875-3 0  9992,2 54007  53.2169 194.2430 0001155  91.3826 268.7298 15.08849929 56950,6917.85,95.437,540.514,538.916,0.0
54007.0,STARLINK-5132,PAYLOAD,2023-10-14 10:42:41,15.08848068,0.0001996,53.2168,191.8642,82.0708,278.0511,0.0010994,0.00017256,0.0,0 STARLINK-5132,1 54007U 22125AV  23287.44631680  .00017256  00000-0  10994-2 0  9998,2 54007  53.2168 191.8642 0001996  82.0708 278.0511 15.08848068 57086,6917.856,95.437,541.102,538.34,0.0
54007.0,STARLINK-5132,PAYLOAD,2023-10-14 21:50:24,15.08830232,0.0001691,53.2166,189.7836,92.2092,267.9094,0.0014572,0.00022973,0.0,0 STARLINK-5132,1 54007U 22125AV  23287.91000254  .00022973  00000-0  14572-2 0  9995,2 54007  53.2166 189.7836 0001691  92.2092 267.9094 15.08830232 57106,6917.91,95.438,540.945,538.605,0.0
54007.0,STARLINK-5132,PAYLOAD,2023-10-15 02:36:33,15.08840232,0.0001637,53.2162,188.8915,84.1006,276.0172,0.0020609,0.00032664,0.0,0 STARLINK-5132,1 54007U 22125AV  23288.10872382  .00032664  00000-0  20609-2 0  9992,2 54007  53.2162 188.8915 0001637  84.1006 276.0172 15.08840232 57182,6917.88,95.438,540.877,538.612,0.0
54007.0,STARLINK-5132,PAYLOAD,2023-10-15 10:33:29,15.08837614,0.0001778,53.2168,187.4032,82.3607,277.7587,0.00096256,0.00015063,0.0,0 STARLINK-5132,1 54007U 22125AV  23288.43992582  .00015063  00000-0  96256-3 0  9999,2 54007  53.2168 187.4032 0001778  82.3607 277.7587 15.08837614 57230,6917.888,95.438,540.983,538.523,0.0
54007.0,STARLINK-5132,PAYLOAD,2023-10-15 21:41:11,15.08844336,0.0001989,53.2167,185.3235,80.7861,279.3356,0.00072174,0.00011218,0.0,0 STARLINK-5132,1 54007U 22125AV  23288.90360716  .00011218  00000-0  72174-3 0  9990,2 54007  53.2167 185.3235 0001989  80.7861 279.3356 15.08844336 57252,6917.867,95.437,541.108,538.356,0.0
54007.0,STARLINK-5132,PAYLOAD,2023-10-16 10:24:16,15.08847675,0.000166,53.2166,182.9418,93.6373,266.4809,0.00043805,6.692e-05,0.0,0 STARLINK-5132,1 54007U 22125AV  23289.43352354  .00006692  00000-0  43805-3 0  9997,2 54007  53.2166 182.9418 0001660  93.6373 266.4809 15.08847675 57387,6917.857,95.437,540.87,538.574,0.0
54007.0,STARLINK-5132,PAYLOAD,2023-10-17 10:15:03,15.08846963,0.000155,53.2165,178.4798,101.2862,258.8304,0.00029979,4.487e-05,0.0,0 STARLINK-5132,1 54007U 22125AV  23290.42712030  .00004487  00000-0  29979-3 0  9995,2 54007  53.2165 178.4798 0001550 101.2862 258.8304 15.08846963 57535,6917.859,95.437,540.796,538.652,0.0
54007.0,STARLINK-5132,PAYLOAD,2023-10-17 22:58:08,15.08850195,0.0002145,53.2164,176.1031,89.941,270.1828,0.00024115,3.553e-05,0.0,0 STARLINK-5132,1 54007U 22125AV  23290.95704139  .00003553  00000-0  24115-3 0  9994,2 54007  53.2164 176.1031 0002145  89.9410 270.1828 15.08850195 57564,6917.849,95.437,541.198,538.23,0.0
54007.0,STARLINK-5132,PAYLOAD,2023-10-18 19:38:09,15.08846767,0.0001482,53.2153,172.2396,85.5898,274.5264,0.00021111,3.074e-05,0.0,0 STARLINK-5132,1 54007U 22125AV  23291.81816165  .00003074  00000-0  21111-3 0  9994,2 54007  53.2153 172.2396 0001482  85.5898 274.5264 15.08846767 57740,6917.86,95.437,540.75,538.699,0.0
54007.0,STARLINK-5132,PAYLOAD,2023-10-18 22:48:55,15.0885217,0.0001592,53.2165,171.642,94.344,265.7734,0.0002929,4.378e-05,0.0,0 STARLINK-5132,1 54007U 22125AV  23291.95063950  .00004378  00000-0  29290-3 0  9999,2 54007  53.2165 171.6420 0001592  94.3440 265.7734 15.08852170 57713,6917.843,95.437,540.81,538.607,0.0
54007.0,STARLINK-5132,PAYLOAD,2023-10-19 19:28:55,15.08848569,0.00012,53.2147,167.7798,87.9344,272.1785,0.00026216,3.888e-05,0.0,0 STARLINK-5132,1 54007U 22125AV  23292.81175750  .00003888  00000-0  26216-3 0  9997,2 54007  53.2147 167.7798 0001200  87.9344 272.1785 15.08848569 57843,6917.854,95.437,540.549,538.889,0.0
54007.0,STARLINK-5132,PAYLOAD,2023-10-20 14:33:33,15.08835645,0.0001201,53.2141,164.2123,89.8921,270.2209,-8.1932e-05,-1.591e-05,0.0,0 STARLINK-5132,1 54007U 22125AV  23293.60664119 -.00001591  00000-0 -81932-4 0  9995,2 54007  53.2141 164.2123 0001201  89.8921 270.2209 15.08835645 57968,6917.894,95.438,540.59,538.928,0.0
54007.0,STARLINK-5132,PAYLOAD,2023-10-20 17:44:20,15.08832944,0.0001232,53.2169,163.6147,95.1285,264.9848,-5.0368e-05,-1.089e-05,0.0,0 STARLINK-5132,1 54007U 22125AV  23293.73912954 -.00001089  00000-0 -50368-4 0  9993,2 54007  53.2169 163.6147 0001232  95.1285 264.9848 15.08832944 58031,6917.902,95.438,540.619,538.915,0.0
54007.0,STARLINK-5132,PAYLOAD,2023-10-20 20:55:07,15.08832643,0.000124,53.2168,163.02,94.9067,265.2067,-5.6571e-05,-1.188e-05,0.0,0 STARLINK-5132,1 54007U 22125AV  23293.87160999 -.00001188  00000-0 -56571-4 0  9994,2 54007  53.2168 163.0200 0001240  94.9067 265.2067 15.08832643 58008,6917.903,95.438,540.626,538.91,0.0
54007.0,STARLINK-5132,PAYLOAD,2023-10-21 08:02:48,15.08838815,0.0001237,53.2168,160.9387,92.8617,267.2517,3.0188e-06,-2.4e-06,0.0,0 STARLINK-5132,1 54007U 22125AV  23294.33528536 -.00000240  00000-0  30188-5 0  9995,2 54007  53.2168 160.9387 0001237  92.8617 267.2517 15.08838815 58126,6917.884,95.438,540.605,538.893,0.0
54007.0,STARLINK-5132,PAYLOAD,2023-10-21 14:24:21,15.08832505,0.0001206,53.2168,159.749,96.0689,264.044,9.6015e-05,1.24e-05,0.0,0 STARLINK-5132,1 54007U 22125AV  23294.60024549  .00001240  00000-0  96015-4 0  9990,2 54007  53.2168 159.7490 0001206  96.0689 264.0440 15.08832505 58117,6917.903,95.438,540.603,538.934,0.0
54007.0,STARLINK-5132,PAYLOAD,2023-10-21 22:21:16,15.08845667,0.0001271,53.2163,158.2625,98.298,261.8156,0.00019921,2.884e-05,0.0,0 STARLINK-5132,1 54007U 22125AV  23294.93143539  .00002884  00000-0  19921-3 0  9992,2 54007  53.2163 158.2625 0001271  98.2980 261.8156 15.08845667 58163,6917.863,95.437,540.607,538.849,0.0
54007.0,STARLINK-5132,PAYLOAD,2023-10-22 07:53:35,15.08822336,0.00015,53.2177,156.4789,90.3628,269.7536,0.00031867,4.785e-05,0.0,0 STARLINK-5132,1 54007U 22125AV  23295.32888398  .00004785  00000-0  31867-3 0  9990,2 54007  53.2177 156.4789 0001500  90.3628 269.7536 15.08822336 58275,6917.934,95.439,540.837,538.762,0.0
54007.0,STARLINK-5132,PAYLOAD,2023-10-22 20:36:42,15.08821862,0.0001281,53.2162,154.0997,87.5858,272.5281,4.3834e-05,4.1e-06,0.0,0 STARLINK-5132,1 54007U 22125AV  23295.85882161  .00000410  00000-0  43834-4 0  9999,2 54007  53.2162 154.0997 0001281  87.5858 272.5281 15.08821862 58354,6917.936,95.439,540.687,538.915,0.0
